#dP2021  7  8  0  0  0.00000000      96 __u+U ITR00 FIT  IAC
## 2165 345600.00000000   900.00000000 59403 0.0000000000000
+  117   C06C07C08C09C10C11C12C13C14C16C19C20C21C22C23C24C25
+        C26C27C28C29C30C32C33C34C35C36C37C38C39C40C41C42C43
+        C44C45C46E01E02E03E04E05E07E08E09E11E12E13E14E15E18
+        E19E21E24E25E26E27E30E31E33E36G01G02G03G04G05G06G07
+        G08G09G10G11G12G13G14G15G16G17G18G19G20G21G22G23G24
+        G25G26G27G28G29G30G31G32J01J02J03R01R02R03R04R05R07
+        R08R09R11R12R13R14R15R16R17R18R19R20R21R22R24  0  0
++         7  7  8  7  7  8  7  8  7  9  6  6  7  7  5  8  8
++         6  7  7  7  5  7  7  7  6  7  6  7  8  9  7  7  7
++         7  6  8  7  7  6  5  6  7  5  6  6  7  6  6  5  7
++         6  7  6  7  6  7  6  6  7  6  6  7  6  6  6  6  6
++         5  6  6  6  8  7  5  7  6  4  6  7  6  6  6  6  6
++         6  7  6  6  6  6  6  5  9  8  7  8  6  7  6  8  7
++         7  9  6  7  7  8  7  7  6  8  8  6  8  9  7  0  0
%c M  cc GPS ccc cccc cccc cccc cccc ccccc ccccc ccccc ccccc
%c cc cc ccc ccc cccc cccc cccc cccc ccccc ccccc ccccc ccccc
%f  0.0000000  0.000000000  0.00000000000  0.000000000000000
%f  0.0000000  0.000000000  0.00000000000  0.000000000000000
%i    0    0    0    0      0      0      0      0         0
%i    0    0    0    0      0      0      0      0         0
/* INFORMATION & ANALYSIS CENTER (IAC)      ULTRA-RAPID DATA
/* S/V CLOCKS ARE ALIGNED TO GNSS TIME                      
/* G:C1WC2W R:C1PC2P E:C1XC5X C:C2IC6I J:C1CC2S             
/* PCV:IGS14_2163 OL/AL:FES2004  NONE     YN ORB:CoN CLK:CoN
*  2021 07 08  1 15  0.00000000
PC06  -6615.314163  28143.788336 -30043.518972    596.640834
PC07 -19977.452625  25955.959175  26549.009074    145.610538
PC08 -17485.352128  38535.135628   1992.916262   -901.684182
PC09   5740.495340  35913.595889 -20645.731884    390.842313
PC10  -5961.852824  27385.067120  31629.978709    -21.175672
PC11  -5958.074227  17360.911142  21087.846269    444.594999
PC12 -17079.340076   -324.098098  22087.726634    818.803441
PC13  -9375.822230  40115.707317  -9499.904567    328.380171
PC14 -16104.398235  13277.539619 -18468.251348    827.393999
PC16  -4072.502763  29548.756879 -29585.812803   -931.730805
PC19   5516.408272 -15664.279196  22456.032519    900.783695
PC20  22825.473264  -9577.472451  12935.782126   -851.674680
PC21 -27337.079668  -2644.931133   4878.549474   -935.222362
PC22 -15532.628004 -12897.754233  19253.418758   -948.444940
PC23   6185.885228  18426.815407  20033.356582   -962.586089
PC24 -18767.723613  17407.454896 -11135.979111   -928.417460
PC25  -7858.737711  25857.427730   6991.418725   -889.284545
PC26 -17732.499450    709.245861 -21547.496080    881.931372
PC27  19623.386299   9921.348654 -17197.153948    560.744957
PC28  14909.766091  23559.121281  -1296.989043    -53.252230
PC29  -2311.579395 -23228.489599 -15302.934814    416.483803
PC30  12836.149189  -9409.851871 -22931.591321    473.316088
PC32  27380.300184   2420.246529  -4850.510610   -924.200594
PC33  -5477.478665  15700.486895 -22400.685337   -941.096661
PC34 -12396.665144  10115.982795  22848.464003   -633.135177
PC35 -15525.957511 -23190.564778    912.917855   -197.614109
PC36   8755.674318 -25653.765526  -6609.692545   -731.313560
PC37  17390.085206    742.174788  21832.724633   -866.869942
PC38 -16154.967085  39021.196760    712.470639    160.256716
PC39  -1278.962705  30246.321419 -29265.346271     32.261109
PC40 -13658.637229  22121.430438  33185.237354    178.388328
PC41  15305.629830  12967.581156 -19350.133371   -956.544003
PC42 -23320.886035   9170.553344 -12214.033134   -917.659421
PC43   1692.468149  23046.058016  15619.240683   -811.202033
PC44 -20054.035872  -9455.990623  16951.498670    278.168238
PC45  -6231.572725 -18244.048319 -20160.201400    487.564422
PC46  18419.544252 -18248.317006  10291.048053    189.247417
PE01   -943.765716 -18215.351273 -23308.317597  -1145.401712
PE02   1081.851641  18160.479457  23353.680592    231.374336
PE03  12473.102354  20146.293251 -17747.370815   -450.247988
PE04 -26133.173885 -13842.677736   1223.780865   -808.616252
PE05  -8763.959024  14719.946260 -24131.648897   -266.948206
PE07  24649.701915   -784.714453  16389.908818   -559.006596
PE08  26335.869854  13503.918553   -875.915219   5973.869433
PE09 -24491.115629    956.195857 -16575.121164   5607.938612
PE11 -15318.039580   7420.997252  24199.808724   5750.198320
PE12 -14584.733372 -15556.590268  20529.058863   5122.172346
PE13  15320.086471  -6975.119626 -24350.877665    418.732034
PE14  21997.004378  18914.063114    338.132663  -1492.566307
PE15  14588.075879  15459.196698 -20600.014735    804.678683
PE18 -11209.340790 -22861.666011 -11948.679946  -1635.569136
PE19 -10193.699921 -20043.532118  19257.882248    321.305993
PE21  17228.490825 -21008.775773 -11748.811533   -674.983436
PE24 -26344.251937  10970.041543  -7901.645978   -995.908934
PE25 -17380.981223  20976.955396  11584.082665   -539.302448
PE26   6729.509519 -25741.063231 -12972.332708   1605.041950
PE27  26232.108072 -11741.120628   7088.355545    -70.819347
PE30  19019.464941   5336.854824  22037.606054   2802.019742
PE31 -19749.839604  -4346.252690 -21603.702410   -483.013102
PE33  -5265.508846 -28745.425964   4725.749048   -468.012567
PE36  -7031.938467  25244.001405  13755.103347   -231.382820
PG01 -13204.003208  15248.139771  16825.157034    635.035228
PG02  13459.646120   9973.926742 -19946.528035   -618.005526
PG03 -23163.095638  12458.081060  -3315.144241   -213.969546
PG04 -15037.158892   6672.242335 -20856.246963   -201.873987
PG05  24652.541989  -4556.156706  -9208.621331    -47.242709
PG06   7648.071202  20429.538978 -15059.554070     36.960854
PG07  -6461.598364  24990.256334  -4648.855157    197.102166
PG08 -21603.820303  -2351.627081  15463.355174    -27.964813
PG09  -4093.777382  15575.653845 -21178.019079   -354.576477
PG10  -2466.652707 -15173.632760  21748.327787   -157.589320
PG11  12640.747176  11140.839655 -20547.721565      9.867697
PG12  24183.711271 -10489.437569  -2835.792713    -65.538219
PG13  21755.066571  11287.107587  10278.428452    154.786409
PG14   2010.487538  15447.688700  21502.952901     52.626848
PG15  21897.594404   -246.505793  14894.308925   -137.092826
PG16 -22905.936806  -2404.351752 -13867.062983   -353.517394
PG17   9191.992094  20496.228252  14595.187640    470.332213
PG18   5133.722522 -25924.183052  -2212.514074    342.445594
PG19  16240.985268  20227.832158   5747.135321     23.386644
PG20  20540.770163   1562.572816 -16592.573495    520.406775
PG21 -15252.210021   6823.183402  21243.107882    129.882497
PG22 -24358.510276   8618.101978   5860.172450   -569.209023
PG23   9988.042734 -17662.045534  17086.167869     87.577810
PG24  14625.536768 -10527.907514  19134.868596    165.448292
PG25  16441.043498 -16685.708658 -12520.490486    169.550834
PG26 -15202.724012  -8822.403343 -20041.804432    107.861227
PG27 -23124.350228 -11622.116637   6592.397892   -159.391515
PG28   8099.738266  13207.576054  22104.777345    541.691094
PG29   6193.106037 -13856.827365 -21838.929277   -376.598047
PG30   1860.328699  25350.183264   7336.077560   -448.165443
PG31  -9043.816443 -18675.231928 -16392.147492   -127.386584
PG32 -12898.853736 -20002.655269  12081.676393     15.207037
PJ01 -31219.189073  14874.629240 -19464.706354   -410.930385
PJ02 -29821.693783  29753.180749   6074.629904     -0.652358
PJ03 -24137.251492  25240.602432  28682.824049    -10.366679
PR01 -24870.615658   -776.314651  -5572.856352     81.998317
PR02 -11539.411882   8194.379781 -21192.419623    485.209242
PR03   7570.506811  11528.616580 -21400.956527     39.071199
PR04  22147.484736   8202.231996  -9602.224240     94.781578
PR05  24348.533923    474.306729   7567.871134     74.939662
PR07  -8325.190649 -11564.678799  21206.956753    -42.113354
PR08 -22162.718455  -8253.955501   9639.790102    -59.857676
PR09  14799.367527 -20674.197942  -2487.468414      1.778229
PR11  -9693.388487  -5227.238242 -22993.500094    -19.461911
PR12 -17816.603608  11083.448024 -14485.495086    243.469679
PR13 -15105.388433  20474.792197   1759.953247    -57.395732
PR14  -3242.546211  17842.277566  17945.268958     66.207271
PR15  10109.743618   4929.658231  22918.631038    102.814051
PR16  17718.057285 -12193.102374  13596.450851    -17.550140
PR17   7024.927988  24181.038820   4209.974149    439.157234
PR18  12684.594937  18268.134492 -12440.233012     82.654971
PR19  11797.189767   3940.698972 -22278.535668   -150.671987
PR20   3628.676280 -16164.844725 -19410.851036    -52.126780
PR21  -7536.076646 -24174.058607  -2962.640750   -222.211923
PR22 -12723.871840 -17718.763245  13278.936081   -121.534655
PR24  -3336.582269  16894.617661  18833.382914     49.560603
EOF
